#aV2009 10 25  0  0   .00000000      96 DD+AD WGS84 FIT  NGA
## 1555       .00000000   900.00000000 55129  .0000000000000
+   32     1  2  3  4  5  6  7  8  9 10 11 12 13 14 15 16 17
+         18 19 20 21 22 23 24 25 26 27 28 29 30 31 32  0  0
+          0  0  0  0  0  0  0  0  0  0  0  0  0  0  0  0  0
+          0  0  0  0  0  0  0  0  0  0  0  0  0  0  0  0  0
+          0  0  0  0  0  0  0  0  0  0  0  0  0  0  0  0  0
++         0  0  0  0  0  0  0  0  0  0  0  0  0  0  0  0  0
++         0  0  0  0  0  0  0  0  0  0  0  0  0  0  0  0  0
++         0  0  0  0  0  0  0  0  0  0  0  0  0  0  0  0  0
++         0  0  0  0  0  0  0  0  0  0  0  0  0  0  0  0  0
++         0  0  0  0  0  0  0  0  0  0  0  0  0  0  0  0  0
%c cc cc ccc ccc cccc cccc cccc cccc ccccc ccccc ccccc ccccc
%c cc cc ccc ccc cccc cccc cccc cccc ccccc ccccc ccccc ccccc
%f  0.0000000  0.000000000  0.00000000000  0.000000000000000
%f  0.0000000  0.000000000  0.00000000000  0.000000000000000
%i    0    0    0    0      0      0      0      0         0
%i    0    0    0    0      0      0      0      0         0
/*      NGA, ST. LOUIS,MO.                                  
/*   EPHEMERIS COMPUTED FROM  3 DAYS OF DATA                
/* CCCCCCCCCCCCCCCCCCCCCCCCCCCCCCCCCCCCCCCCCCCCCCCCCCCCCCCCC
/* CCCCCCCCCCCCCCCCCCCCCCCCCCCCCCCCCCCCCCCCCCCCCCCCCCCCCCCCC
*  2009 10 25  9 30   .00000000                                                 
P  1  15269.633452  -1318.866333  21581.985827    -61.755959                    
V  1  -2600.358731  27532.460326   3605.399712      -.016460                    
P  2   7339.575875  19843.633572  16240.048037    184.458000                    
V  2 -17936.056184 -10409.488029  20309.616914       .038746                    
P  3  -2956.042550 -16463.078344 -20919.465738    465.377147                    
V  3  22953.757926 -12222.239759   6835.165247       .051172                    
P  4  -4817.979245  15418.499218  20875.470033   -327.267854                    
V  4 -22181.349239 -15423.984832   6594.087012      -.178967                    
P  5   3564.020984  24711.753321  -8958.556468    -57.809312                    
V  5  -3856.642366  11026.918947  28989.269981       .080693                    
P  6   2007.966647 -17333.695495 -19820.267513    256.305194                    
V  6  23661.887673 -10093.031922  11217.263236       .034028                    
P  7 -21773.474314  -3387.573715 -14954.275842      8.956574                    
V  7 -14115.275591 -12665.266916  23291.804462      -.007421                    
P  8 -14159.651332   6565.906976 -21608.112045    -20.116937                    
V  8 -20618.919198 -17712.502382   7632.898790      -.375747                    
P  9  21036.205800  16201.735332  -1995.611781     84.869559                    
V  9  -2660.625768    815.142279 -31980.665391       .020506                    
P 10   1066.222338  25595.137743  -6450.656006    -26.698268                    
V 10  -4167.979754   7567.937310  30429.893896      -.009665                    
P 11 -24282.715630 -11233.129016   -593.018385    -25.926419                    
V 11   2346.266166  -4109.157072 -29854.321731      -.018342                    
P 12  11842.701235  13746.537574  19491.511871   -199.517093                    
V 12  -4050.963409  24263.749288 -14570.541719       .054099                    
P 13 -25408.069609   5456.077952   5405.917073    305.866349                    
V 13   6002.624038  -3985.620330  31491.790972       .002439                    
P 14  19814.390008 -14632.717154   9899.063618    -33.147027                    
V 14  12208.618216  -2745.910169 -29016.232027       .049538                    
P 15  10325.505135  11904.823846 -21359.712066   -320.368738                    
V 15 -24585.878253  11644.124190  -5308.878551      -.001048                    
P 16   2536.294534 -26252.408571  -1585.374573     -1.212467                    
V 16   3008.630580  -1683.756116  32027.425390      -.040789                    
P 17 -19218.887868  15350.400532   9831.370158     96.215998                    
V 17 -12533.165575   2249.987287 -28417.835863       .034640                    
P 18  15585.650268  -7993.694650 -19607.558038     22.699136                    
V 18  -2010.730365  25601.050607 -12255.475136       .027297                    
P 19 -11911.831930 -11390.227862 -20840.508488      4.635111                    
V 19  24811.781084  -9363.848866  -8774.363046      -.018453                    
P 20 -14156.297564  -9197.081863  20393.150717     69.181901                    
V 20   3296.762185 -26049.698780  -9352.486641      -.008891                    
P 21  20420.689674   -222.348608 -17011.682080    -17.235702                    
V 21  16310.707050  14895.833687  18439.699200      -.023189                    
P 22  12114.522040 -19981.304978 -12386.474176    187.937015                    
V 22    627.899165  16337.850698 -25475.779868      -.009307                    
P 23 -20720.450064  -3412.488844  16414.300880    387.019862                    
V 23  18502.904979  -9527.329965  21039.476097      -.005364                    
P 24  22459.090902  11965.395897  -7019.814545    231.241387                    
V 24   5025.224656   8284.059763  29956.281380       .028669                    
P 25 -23813.524236  -8229.918027  -7752.376705    643.568024                    
V 25  -7535.286183  -7529.388991  30022.789448       .134346                    
P 26  24827.346527  -9979.828263   1320.942345      6.680375                    
V 26   2664.332209    566.931644 -32055.135151      -.015936                    
P 27  20065.806685  16692.496934  -4337.100404     94.248082                    
V 27  -6598.219181  -1539.908353 -31441.799067       .032927                    
P 28 -12632.524793  17862.665301 -14389.955432    -25.758192                    
V 28    517.854117 -19286.561297 -23979.266425       .001818                    
P 29  24891.326107  -3511.231158   8598.683888     68.894122                    
V 29  -9047.519252   6470.011138  29182.887746       .031327                    
P 30  15179.499031    698.442438  21397.656415    187.731024                    
V 30  -1898.226292  28055.638845    482.836584       .031146                    
P 31   1888.847846 -16345.157068  21028.442181    -62.346397                    
V 31  21520.710688  14980.912934   9949.475144       .006575                    
P 32  -9246.094676 -17715.784315  18021.020169    171.168379                    
V 32   5656.876906 -21313.656438 -18155.702607      -.073927                    
EOF
